{
  "type": "FeatureCollection",
  "features": [
    {
      "type": "Feature",
      "properties": {
        "norad_id": 31815,
        "name": "FENGYUN 1C DEB",
        "group": "fengyun-1c-debris",
        "lat": -30.94894172695016,
        "lon": 152.78886622987338,
        "alt_km": 903.4838090773965,
        "timestamp": "2025-12-17T21:39:45.970518+00:00",
        "meta_object_name": "FENGYUN 1C DEB",
        "meta_object_id": "1999-025CHD",
        "meta_epoch": "2025-12-16T05:30:02.127456",
        "meta_mean_motion": 14.10281699,
        "meta_eccentricity": 0.00590615,
        "meta_inclination": 98.7684,
        "meta_ra_of_asc_node": 336.4677,
        "meta_arg_of_pericenter": 12.3865,
        "meta_mean_anomaly": 347.8742,
        "meta_ephemeris_type": 0,
        "meta_classification_type": "U",
        "meta_norad_cat_id": 31815,
        "meta_element_set_no": 999,
        "meta_rev_at_epoch": 95588,
        "meta_bstar": 4.9461709e-05,
        "meta_mean_motion_dot": 4.6e-07,
        "meta_mean_motion_ddot": 0,
        "tle_line1": "1 31815U 99025CHD 25350.22919129  .00000046  00000+0  49462-4 0  9991",
        "tle_line2": "2 31815  98.7684 336.4677 0059061  12.3865 347.8742 14.10281699955885"
      },
      "geometry": {
        "type": "Point",
        "coordinates": [
          152.78886622987338,
          -30.94894172695016
        ]
      }
    },
    {
      "type": "Feature",
      "properties": {
        "norad_id": 31816,
        "name": "FENGYUN 1C DEB",
        "group": "fengyun-1c-debris",
        "lat": -80.86396974192013,
        "lon": -153.5544859489712,
        "alt_km": 974.537716009143,
        "timestamp": "2025-12-17T21:39:45.970527+00:00",
        "meta_object_name": "FENGYUN 1C DEB",
        "meta_object_id": "1999-025CHE",
        "meta_epoch": "2025-12-13T18:57:26.398368",
        "meta_mean_motion": 13.94186907,
        "meta_eccentricity": 0.01209101,
        "meta_inclination": 98.9829,
        "meta_ra_of_asc_node": 102.0455,
        "meta_arg_of_pericenter": 151.8795,
        "meta_mean_anomaly": 4.428,
        "meta_ephemeris_type": 0,
        "meta_classification_type": "U",
        "meta_norad_cat_id": 31816,
        "meta_element_set_no": 999,
        "meta_rev_at_epoch": 93708,
        "meta_bstar": 0.0015279259,
        "meta_mean_motion_dot": 2.112e-05,
        "meta_mean_motion_ddot": 0,
        "tle_line1": "1 31816U 99025CHE 25347.78988887  .00002112  00000+0  15279-2 0  9999",
        "tle_line2": "2 31816  98.9829 102.0455 0120910 151.8795   4.4280 13.94186907937085"
      },
      "geometry": {
        "type": "Point",
        "coordinates": [
          -153.5544859489712,
          -80.86396974192013
        ]
      }
    },
    {
      "type": "Feature",
      "properties": {
        "norad_id": 31817,
        "name": "FENGYUN 1C DEB",
        "group": "fengyun-1c-debris",
        "lat": 22.16454371260367,
        "lon": -14.967357293738225,
        "alt_km": 639.1225478181304,
        "timestamp": "2025-12-17T21:39:45.970536+00:00",
        "meta_object_name": "FENGYUN 1C DEB",
        "meta_object_id": "1999-025CHF",
        "meta_epoch": "2025-12-17T05:10:40.766304",
        "meta_mean_motion": 14.65734735,
        "meta_eccentricity": 0.00628365,
        "meta_inclination": 98.919,
        "meta_ra_of_asc_node": 347.9554,
        "meta_arg_of_pericenter": 62.1587,
        "meta_mean_anomaly": 298.5962,
        "meta_ephemeris_type": 0,
        "meta_classification_type": "U",
        "meta_norad_cat_id": 31817,
        "meta_element_set_no": 999,
        "meta_rev_at_epoch": 71471,
        "meta_bstar": 0.0010184227,
        "meta_mean_motion_dot": 5.656e-05,
        "meta_mean_motion_ddot": 0,
        "tle_line1": "1 31817U 99025CHF 25351.21574961  .00005656  00000+0  10184-2 0  9993",
        "tle_line2": "2 31817  98.9190 347.9554 0062836  62.1587 298.5962 14.65734735714715"
      },
      "geometry": {
        "type": "Point",
        "coordinates": [
          -14.967357293738225,
          22.16454371260367
        ]
      }
    },
    {
      "type": "Feature",
      "properties": {
        "norad_id": 31819,
        "name": "FENGYUN 1C DEB",
        "group": "fengyun-1c-debris",
        "lat": 8.282728333562279,
        "lon": -18.167582949207905,
        "alt_km": 764.4827256219169,
        "timestamp": "2025-12-17T21:39:45.970545+00:00",
        "meta_object_name": "FENGYUN 1C DEB",
        "meta_object_id": "1999-025CHH",
        "meta_epoch": "2025-12-15T05:49:11.822880",
        "meta_mean_motion": 14.30181916,
        "meta_eccentricity": 0.00867999,
        "meta_inclination": 98.474,
        "meta_ra_of_asc_node": 340.4855,
        "meta_arg_of_pericenter": 313.0527,
        "meta_mean_anomaly": 46.341,
        "meta_ephemeris_type": 0,
        "meta_classification_type": "U",
        "meta_norad_cat_id": 31819,
        "meta_element_set_no": 999,
        "meta_rev_at_epoch": 96729,
        "meta_bstar": 0.00043519563,
        "meta_mean_motion_dot": 1.13e-05,
        "meta_mean_motion_ddot": 0,
        "tle_line1": "1 31819U 99025CHH 25349.24249795  .00001130  00000+0  43520-3 0  9993",
        "tle_line2": "2 31819  98.4740 340.4855 0086799 313.0527  46.3410 14.30181916967290"
      },
      "geometry": {
        "type": "Point",
        "coordinates": [
          -18.167582949207905,
          8.282728333562279
        ]
      }
    },
    {
      "type": "Feature",
      "properties": {
        "norad_id": 31820,
        "name": "FENGYUN 1C DEB",
        "group": "fengyun-1c-debris",
        "lat": -8.105569284634965,
        "lon": 164.8347558320169,
        "alt_km": 490.5622769766496,
        "timestamp": "2025-12-17T21:39:45.970554+00:00",
        "meta_object_name": "FENGYUN 1C DEB",
        "meta_object_id": "1999-025CHJ",
        "meta_epoch": "2025-12-15T10:09:27.904896",
        "meta_mean_motion": 14.92265653,
        "meta_eccentricity": 0.01498031,
        "meta_inclination": 98.9605,
        "meta_ra_of_asc_node": 160.7284,
        "meta_arg_of_pericenter": 3.3331,
        "meta_mean_anomaly": 356.8846,
        "meta_ephemeris_type": 0,
        "meta_classification_type": "U",
        "meta_norad_cat_id": 31820,
        "meta_element_set_no": 999,
        "meta_rev_at_epoch": 98296,
        "meta_bstar": 0.0006023267,
        "meta_mean_motion_dot": 7.564e-05,
        "meta_mean_motion_ddot": 0,
        "tle_line1": "1 31820U 99025CHJ 25349.42323964  .00007564  00000+0  60233-3 0  9993",
        "tle_line2": "2 31820  98.9605 160.7284 0149803   3.3331 356.8846 14.92265653982966"
      },
      "geometry": {
        "type": "Point",
        "coordinates": [
          164.8347558320169,
          -8.105569284634965
        ]
      }
    },
    {
      "type": "Feature",
      "properties": {
        "norad_id": 31821,
        "name": "FENGYUN 1C DEB",
        "group": "fengyun-1c-debris",
        "lat": 29.60720103599263,
        "lon": 61.31076558160257,
        "alt_km": 885.9264677357651,
        "timestamp": "2025-12-17T21:39:45.970563+00:00",
        "meta_object_name": "FENGYUN 1C DEB",
        "meta_object_id": "1999-025CHK",
        "meta_epoch": "2025-12-16T10:00:25.436448",
        "meta_mean_motion": 14.42098533,
        "meta_eccentricity": 0.02194946,
        "meta_inclination": 98.1571,
        "meta_ra_of_asc_node": 235.2143,
        "meta_arg_of_pericenter": 3.5044,
        "meta_mean_anomaly": 356.7623,
        "meta_ephemeris_type": 0,
        "meta_classification_type": "U",
        "meta_norad_cat_id": 31821,
        "meta_element_set_no": 999,
        "meta_rev_at_epoch": 93714,
        "meta_bstar": 0.0032241537,
        "meta_mean_motion_dot": 0.00014134,
        "meta_mean_motion_ddot": 0,
        "tle_line1": "1 31821U 99025CHK 25350.41696107  .00014134  00000+0  32242-2 0  9996",
        "tle_line2": "2 31821  98.1571 235.2143 0219494   3.5044 356.7623 14.42098533937148"
      },
      "geometry": {
        "type": "Point",
        "coordinates": [
          61.31076558160257,
          29.60720103599263
        ]
      }
    },
    {
      "type": "Feature",
      "properties": {
        "norad_id": 31823,
        "name": "FENGYUN 1C DEB",
        "group": "fengyun-1c-debris",
        "lat": 34.9223598884034,
        "lon": 72.20493696894272,
        "alt_km": 697.9877182892769,
        "timestamp": "2025-12-17T21:39:45.970572+00:00",
        "meta_object_name": "FENGYUN 1C DEB",
        "meta_object_id": "1999-025CHM",
        "meta_epoch": "2025-12-15T23:37:37.981632",
        "meta_mean_motion": 14.65748329,
        "meta_eccentricity": 0.00372513,
        "meta_inclination": 99.5101,
        "meta_ra_of_asc_node": 76.7087,
        "meta_arg_of_pericenter": 209.8294,
        "meta_mean_anomaly": 150.0782,
        "meta_ephemeris_type": 0,
        "meta_classification_type": "U",
        "meta_norad_cat_id": 31823,
        "meta_element_set_no": 999,
        "meta_rev_at_epoch": 96765,
        "meta_bstar": 0.0010310475,
        "meta_mean_motion_dot": 5.615e-05,
        "meta_mean_motion_ddot": 0,
        "tle_line1": "1 31823U 99025CHM 25349.98446738  .00005615  00000+0  10310-2 0  9997",
        "tle_line2": "2 31823  99.5101  76.7087 0037251 209.8294 150.0782 14.65748329967656"
      },
      "geometry": {
        "type": "Point",
        "coordinates": [
          72.20493696894272,
          34.9223598884034
        ]
      }
    }
  ]
}